[
    {
        "OBJECT_NAME": "COSMOS 2476 [GLONASS-M]",
        "OBJECT_ID": "2011-064A",
        "EPOCH": "2026-06-21T10:17:01.807296",
        "MEAN_MOTION": 2.13103667,
        "ECCENTRICITY": 0.0022615,
        "INCLINATION": 65.2724,
        "RA_OF_ASC_NODE": 72.7282,
        "ARG_OF_PERICENTER": 238.6992,
        "MEAN_ANOMALY": 299.7329,
        "EPHEMERIS_TYPE": 0,
        "CLASSIFICATION_TYPE": "U",
        "NORAD_CAT_ID": 37867,
        "ELEMENT_SET_NO": 999,
        "REV_AT_EPOCH": 11385,
        "BSTAR": 0,
        "MEAN_MOTION_DOT": -5.2e-07,
        "MEAN_MOTION_DDOT": 0
    },
    {
        "OBJECT_NAME": "COSMOS 2477 [GLONASS-M]",
        "OBJECT_ID": "2011-064B",
        "EPOCH": "2026-06-20T06:28:07.156128",
        "MEAN_MOTION": 2.13102843,
        "ECCENTRICITY": 0.0019648,
        "INCLINATION": 65.2782,
        "RA_OF_ASC_NODE": 72.8466,
        "ARG_OF_PERICENTER": 240.0065,
        "MEAN_ANOMALY": 309.633,
        "EPHEMERIS_TYPE": 0,
        "CLASSIFICATION_TYPE": "U",
        "NORAD_CAT_ID": 37868,
        "ELEMENT_SET_NO": 999,
        "REV_AT_EPOCH": 11382,
        "BSTAR": 0,
        "MEAN_MOTION_DOT": -3.9e-07,
        "MEAN_MOTION_DDOT": 0
    },
    {
        "OBJECT_NAME": "COSMOS 2475 [GLONASS-M]",
        "OBJECT_ID": "2011-064C",
        "EPOCH": "2026-06-21T06:30:49.932000",
        "MEAN_MOTION": 2.13101681,
        "ECCENTRICITY": 0.0025398,
        "INCLINATION": 65.2855,
        "RA_OF_ASC_NODE": 72.8344,
        "ARG_OF_PERICENTER": 253.0476,
        "MEAN_ANOMALY": 300.3064,
        "EPHEMERIS_TYPE": 0,
        "CLASSIFICATION_TYPE": "U",
        "NORAD_CAT_ID": 37869,
        "ELEMENT_SET_NO": 999,
        "REV_AT_EPOCH": 11385,
        "BSTAR": 0,
        "MEAN_MOTION_DOT": -5e-07,
        "MEAN_MOTION_DDOT": 0
    },
    {
        "OBJECT_NAME": "COSMOS 2485 [GLONASS-M]",
        "OBJECT_ID": "2013-019A",
        "EPOCH": "2026-06-21T03:12:00.727200",
        "MEAN_MOTION": 2.13103118,
        "ECCENTRICITY": 0.0023003,
        "INCLINATION": 65.4217,
        "RA_OF_ASC_NODE": 73.472,
        "ARG_OF_PERICENTER": 233.7016,
        "MEAN_ANOMALY": 126.1208,
        "EPHEMERIS_TYPE": 0,
        "CLASSIFICATION_TYPE": "U",
        "NORAD_CAT_ID": 39155,
        "ELEMENT_SET_NO": 999,
        "REV_AT_EPOCH": 10236,
        "BSTAR": 0,
        "MEAN_MOTION_DOT": -4.8e-07,
        "MEAN_MOTION_DDOT": 0
    },
    {
        "OBJECT_NAME": "COSMOS 2492 [GLONASS-M]",
        "OBJECT_ID": "2014-012A",
        "EPOCH": "2026-06-18T06:38:22.527168",
        "MEAN_MOTION": 2.13103143,
        "ECCENTRICITY": 0.0010348,
        "INCLINATION": 65.2971,
        "RA_OF_ASC_NODE": 313.8989,
        "ARG_OF_PERICENTER": 324.5914,
        "MEAN_ANOMALY": 35.3281,
        "EPHEMERIS_TYPE": 0,
        "CLASSIFICATION_TYPE": "U",
        "NORAD_CAT_ID": 39620,
        "ELEMENT_SET_NO": 999,
        "REV_AT_EPOCH": 9526,
        "BSTAR": 0,
        "MEAN_MOTION_DOT": -5.5e-07,
        "MEAN_MOTION_DDOT": 0
    },
    {
        "OBJECT_NAME": "COSMOS 2500 [GLONASS-M]",
        "OBJECT_ID": "2014-032A",
        "EPOCH": "2026-06-21T06:17:09.946752",
        "MEAN_MOTION": 2.13105734,
        "ECCENTRICITY": 0.0007492,
        "INCLINATION": 65.2298,
        "RA_OF_ASC_NODE": 313.5443,
        "ARG_OF_PERICENTER": 184.9913,
        "MEAN_ANOMALY": 174.9944,
        "EPHEMERIS_TYPE": 0,
        "CLASSIFICATION_TYPE": "U",
        "NORAD_CAT_ID": 40001,
        "ELEMENT_SET_NO": 999,
        "REV_AT_EPOCH": 9354,
        "BSTAR": 0,
        "MEAN_MOTION_DOT": -6.7e-07,
        "MEAN_MOTION_DDOT": 0
    },
    {
        "OBJECT_NAME": "COSMOS 2501 [GLONASS-K]",
        "OBJECT_ID": "2014-075A",
        "EPOCH": "2026-06-21T01:18:52.285248",
        "MEAN_MOTION": 2.13101228,
        "ECCENTRICITY": 0.0022628,
        "INCLINATION": 63.6166,
        "RA_OF_ASC_NODE": 190.2381,
        "ARG_OF_PERICENTER": 212.5574,
        "MEAN_ANOMALY": 147.3441,
        "EPHEMERIS_TYPE": 0,
        "CLASSIFICATION_TYPE": "U",
        "NORAD_CAT_ID": 40315,
        "ELEMENT_SET_NO": 999,
        "REV_AT_EPOCH": 8993,
        "BSTAR": 0,
        "MEAN_MOTION_DOT": 7.2e-07,
        "MEAN_MOTION_DDOT": 0
    },
    {
        "OBJECT_NAME": "COSMOS 2514 [GLONASS-M]",
        "OBJECT_ID": "2016-008A",
        "EPOCH": "2026-06-19T15:09:18.836928",
        "MEAN_MOTION": 2.13102571,
        "ECCENTRICITY": 0.00113762,
        "INCLINATION": 65.0201,
        "RA_OF_ASC_NODE": 312.9226,
        "ARG_OF_PERICENTER": 198.2261,
        "MEAN_ANOMALY": 161.7251,
        "EPHEMERIS_TYPE": 0,
        "CLASSIFICATION_TYPE": "U",
        "NORAD_CAT_ID": 41330,
        "ELEMENT_SET_NO": 999,
        "REV_AT_EPOCH": 8067,
        "BSTAR": 0,
        "MEAN_MOTION_DOT": -5.9e-07,
        "MEAN_MOTION_DDOT": 0
    }
]